STARLINK-1007           
1 44713C 19074A   22352.87131944  .00004498  00000-0  30145-3 0  3525
2 44713  53.0541  69.5778 0001700  45.9630 350.1887 15.06385107    15
STARLINK-1008           
1 44714C 19074B   22352.89493056  .00001216  00000-0  81458-4 0  3522
2 44714  53.0546  69.4572 0001468  58.2713 220.8342 15.06402961    19
STARLINK-1009           
1 44715C 19074C   22352.87131944  .00012871  00000-0  86273-3 0  3524
2 44715  53.0526  69.5754 0001573  67.9200 143.1375 15.06371326    19
STARLINK-1010           
1 44716C 19074D   22352.85673611  .00010058  00000-0  67393-3 0  3522
2 44716  53.0542  69.6338 0001920  41.1455 350.7572 15.06384290    18
STARLINK-1011           
1 44717C 19074E   22352.89701389  .00006741  00000-0  45166-3 0  3529
2 44717  53.0549  89.4535 0001962  44.4460 215.9958 15.06393371    13
STARLINK-1012           
1 44718C 19074F   22352.87062500  .00010127  00000-0  67841-3 0  3520
2 44718  53.0543  69.5765 0002131  38.9840 228.2753 15.06392701    17
STARLINK-1013           
1 44719C 19074G   22352.87826389 -.00002702  00000-0 -18101-3 0  3521
2 44719  53.0551  69.5455 0001762  48.6893 220.0243 15.06403269    14
STARLINK-1014           
1 44720C 19074H   22352.89631944  .00016255  00000-0  10891-2 0  3529
2 44720  53.0559  69.4489 0001848  39.6690 232.1475 15.06380475    14
STARLINK-1015           
1 44721C 19074J   22352.88590278 -.00001929  00000-0 -12926-3 0  3529
2 44721  53.0540  69.5026 0001944  37.0684 233.0690 15.06401129    14
STARLINK-1016           
1 44722C 19074K   22352.50881944  .00933032  00000-0  24173-1 0  3524
2 44722  53.0552  69.3258 0001635  45.5654 194.0887 15.37538025    15
STARLINK-1017           
1 44723C 19074L   22352.87479167  .00017477  00000-0  11708-2 0  3522
2 44723  53.0537  69.5455 0001874  47.0035  62.8594 15.06385175    14
STARLINK-1019           
1 44724C 19074M   22352.85881944  .00015992  00000-0  10711-2 0  3524
2 44724  53.0526  69.6226 0001841  49.5130 173.6059 15.06396643    16
STARLINK-1020           
1 44725C 19074N   22352.89423611  .00000208  00000-0  13956-4 0  3522
2 44725  53.0555  89.4721 0001578  44.6919 340.6590 15.06409316    15
STARLINK-1021           
1 44726C 19074P   22352.86298611 -.00006004  00000-0 -40227-3 0  3522
2 44726  53.0540  69.5910 0001930  50.8464 214.9668 15.06405229    13
STARLINK-1022           
1 44727C 19074Q   22352.88034722  .00021225  00000-0  14220-2 0  3529
2 44727  53.0521 109.5306 0001358  63.2533 101.8496 15.06380501    14
STARLINK-1024           
1 44729C 19074S   22352.86923611  .00039947  00000-0  17426-2 0  3524
2 44729  53.0074  64.4367 0000906 301.1336 329.5796 15.21592529    12
STARLINK-1026           
1 44731C 19074U   22352.87479167 -.00003142  00000-0 -21046-3 0  3524
2 44731  53.0535  69.5547 0002197  38.6509 231.2149 15.06405859    14
STARLINK-1027           
1 44732C 19074V   22352.88451389  .00011949  00000-0  80062-3 0  3527
2 44732  53.0548  89.5107 0001732  44.2323 348.3951 15.06385137    11
STARLINK-1028           
1 44733C 19074W   22352.89770833 -.00002024  00000-0 -13560-3 0  3522
2 44733  53.0538  69.4358 0001794  52.2979  61.8716 15.06410270    13
STARLINK-1029           
1 44734C 19074X   22352.89215278  .00015723  00000-0  10533-2 0  3524
2 44734  53.0544 349.4727 0002052  47.1184 316.9363 15.06388008    16
STARLINK-1030           
1 44735C 19074Y   22352.88173611  .00014204  00000-0  95136-3 0  3524
2 44735  53.0519  89.5299 0002456  34.1259 303.3508 15.06394548    19
STARLINK-1031           
1 44736C 19074Z   22352.89423611  .00020586  00000-0  13791-2 0  3520
2 44736  53.0538  89.4692 0001681  45.0206 280.3631 15.06382733    13
STARLINK-1032           
1 44737C 19074AA  22352.88312500  .00018122  00000-0  12153-2 0  3528
2 44737  53.0538  89.5133 0001372  63.3337 141.8653 15.06346707    16
STARLINK-1033           
1 44738C 19074BA  22352.89076389  .00006291  00000-0  42148-3 0  3524
2 44738  53.0534  89.4833 0001791  51.0089 275.5394 15.06391774    13
STARLINK-1035           
1 44740C 19074AD  22352.88937500  .00002799  00000-0  18753-3 0  3521
2 44740  53.0537  89.4871 0001951  45.1094 213.8940 15.06397915    14
STARLINK-1036           
1 44741C 19074AE  22352.87201389  .00018241  00000-0  12223-2 0  3524
2 44741  53.0530  89.5645 0001579  69.0945  35.6644 15.06378659    19
STARLINK-1038           
1 44743C 19074AG  22352.89423611 -.00002871  00000-0 -19232-3 0  3524
2 44743  53.0527 109.4642 0001592  54.0091 261.3600 15.06408080    19
STARLINK-1039           
1 44744C 19074AH  22352.89006944  .00006240  00000-0  41807-3 0  3526
2 44744  53.0525 109.4889 0001434  62.5579 170.2677 15.06395402    16
STARLINK-1041           
1 44746C 19074AK  22352.89006944 -.00006178  00000-0 -41385-3 0  3521
2 44746  53.0523 109.4865 0001588  50.8146 261.9389 15.06409649    17
STARLINK-1042           
1 44747C 19074AL  22352.83520833  .00012299  00000-0  82396-3 0  3520
2 44747  53.0518 109.7225 0001599  53.2494 161.8350 15.06389645    19
STARLINK-1043           
1 44748C 19074AM  22352.85534722  .00021694  00000-0  14545-2 0  3524
2 44748  53.0532 109.6409 0001502  71.3380  93.0923 15.06352856    14
STARLINK-1046           
1 44751C 19074AQ  22352.89770833  .00005179  00000-0  34694-3 0  3525
2 44751  53.0525 109.4561 0001726  43.3096 270.9028 15.06401357    11
STARLINK-1047           
1 44752C 19074AR  22352.87618056  .00016252  00000-0  10889-2 0  3525
2 44752  53.0518  89.5447 0001778  56.9335  30.4229 15.06383524    15
STARLINK-1048           
1 44753C 19074AS  22352.88590278  .00004336  00000-0  29056-3 0  3529
2 44753  53.0543  69.5075 0001803  42.1022  68.0518 15.06388593    17
STARLINK-1049           
1 44754C 19074AT  22352.86298611  .00019916  00000-0  13343-2 0  3525
2 44754  53.0541  69.6087 0001990  32.9911 292.7910 15.06378965    15
STARLINK-1034           
1 44757C 19074AW  22352.89840278 -.00079080  00000-0 -52991-2 0  3525
2 44757  53.0531  89.4457 0001640  61.6019  86.3559 15.06472926    16
STARLINK-1053           
1 44758C 19074AX  22352.86229167  .00013671  00000-0  91592-3 0  3524
2 44758  53.0535 109.6890 0001427  69.8178 152.1934 15.06386236    13
STARLINK-1054           
1 44759C 19074AY  22352.83451389  .00024411  00000-0  16360-2 0  3528
2 44759  53.0538 109.7345 0001415  65.2322 106.0438 15.06365125    12
STARLINK-1055           
1 44760C 19074AZ  22352.88868056  .00020687  00000-0  13861-2 0  3522
2 44760  53.0514 109.4993 0001717  55.1923 129.9709 15.06378215    13
STARLINK-1056           
1 44761C 19074BA  22352.83868056 -.00001406  00000-0 -94226-4 0  3524
2 44761  53.0528 109.7222 0001597  51.3861 162.5334 15.06402230    14
STARLINK-1057           
1 44762C 19074BB  22352.89493056  .00008193  00000-0  54896-3 0  3521
2 44762  53.0524  89.4619 0001564  63.2880  85.8603 15.06390125    17
STARLINK-1058           
1 44763C 19074BC  22352.86159722  .00022773  00000-0  15258-2 0  3526
2 44763  53.0543 109.5934 0001395  68.1204 155.2831 15.06377555    16
STARLINK-1059           
1 44764C 19074BD  22352.89770833  .00023695  00000-0  13682-2 0  3525
2 44764  53.0564  86.2987 0001875 235.0091 158.7982 15.11801086    13
STARLINK-1060           
1 44765C 19074BE  22352.87618056  .00015355  00000-0  10287-2 0  3524
2 44765  53.0537  89.5471 0001436  61.8755 265.4843 15.06386786    14
STARLINK-1061           
1 44766C 19074BF  22352.85465278  .00022791  00000-0  15269-2 0  3526
2 44766  53.0519 109.6411 0001638  66.4419 154.1726 15.06378579    10
STARLINK-1062           
1 44767C 19074BG  22352.83590278  .00023991  00000-0  16074-2 0  3522
2 44767  53.0524 109.7235 0001537  56.9415 107.0197 15.06374767    14
STARLINK-1063           
1 44768C 19074BH  22352.87131944  .00020959  00000-0  14041-2 0  3521
2 44768  53.0542 109.5593 0001796  53.0119 178.0197 15.06382022    17
STARLINK-1067           
1 44771C 19074BL  22352.84770833  .00022578  00000-0  15136-2 0  3523
2 44771  53.0538 109.6756 0001572  60.0702 102.9009 15.06355254    11
STARLINK-1068           
1 44772C 19074BM  22352.87895833  .00006672  00000-0  44712-3 0  3525
2 44772  53.0535  89.5259 0001992  39.9677 342.5200 15.06385099    10
STARLINK-1073           
1 44914C 20001A   22352.89701389  .00009029  00000-0  60491-3 0  3520
2 44914  53.0544 229.4509 0001514  76.8223 313.5745 15.06393895    13
STARLINK-1084           
1 44915C 20001B   22352.89423611  .00011192  00000-0  74976-3 0  3527
2 44915  53.0510 229.4701 0001626  68.9846 146.3629 15.06391688    19
STARLINK-1098           
1 44917C 20001D   22352.88729167  .00009523  00000-0  63804-3 0  3526
2 44917  53.0531 229.4891 0001688  55.7792 101.8031 15.06390534    18
STARLINK-1099           
1 44918C 20001E   22352.89284722  .00011291  00000-0  75696-3 0  3528
2 44918  53.0543 229.4959 0001454  76.4900  36.3979 15.06366577    12
STARLINK-1102           
1 44920C 20001G   22352.89423611  .00010623  00000-0  67080-3 0  3529
2 44920  53.0522 228.9769 0003716 103.6860 202.1035 15.08562358    19
STARLINK-1103           
1 44921C 20001H   22352.89493056  .00008831  00000-0  59177-3 0  3526
2 44921  53.0513 229.4558 0001628  64.0527 240.1814 15.06383333    11
STARLINK-1104           
1 44922C 20001J   22352.88243056  .00006729  00000-0  45115-3 0  3520
2 44922  53.0531 229.5217 0001396  94.1024 317.2398 15.06369700    18
STARLINK-1106           
1 44923C 20001K   22352.88868056  .00007707  00000-0  51640-3 0  3521
2 44923  53.0536 229.4940 0001534  70.8903 234.3334 15.06387725    13
STARLINK-1111           
1 44924C 20001L   22352.89909722  .00010451  00000-0  70047-3 0  3521
2 44924  53.0537 229.4522 0001694  73.6874 348.0552 15.06374550    13
STARLINK-1112           
1 44925C 20001M   22352.89215278  .00008596  00000-0  57616-3 0  3522
2 44925  53.0537 229.4709 0001616  71.0802 232.9809 15.06374225    13
STARLINK-1113           
